{
  "norad_id": 54067,
  "name": "STARLINK-5174",
  "history": [
    {
      "epoch": "2026-03-28T17:50:37.916160",
      "apogee_km": 540.6006074923616,
      "perigee_km": 538.8656056696309,
      "latitude_deg": -20.131538618350824,
      "longitude_deg": 18.075462399981916,
      "semi_major_axis_km": 6917.870106580996,
      "eccentricity": 0.0001254,
      "inclination_deg": 53.2167,
      "raan_deg": 258.3588,
      "arg_perigee_deg": 90.0744,
      "mean_anomaly_deg": 270.0392,
      "mean_motion_rev_day": 15.08843364
    }
  ]
}