{"fetched_at":"2026-03-30T06:02:59Z","count":15439,"tles":[{"name":"STARLINK-5174","line1":"1 54067U 22136S   26087.74349440  .00000466  00000+0  47356-4 0  9998","line2":"2 54067  53.2167 258.3588 0001254  90.0744 270.0392 15.08843364189725","category":"Starlink"}]}